{"type":"FeatureCollection","features":[{"type":"Feature","properties":{"municipio":"Extremoz","color":"#393185"},"geometry":{"type":"MultiPolygon","coordinates":[[[[-35.22918,-5.64022],[-35.23187,-5.63832],[-35.23185,-5.62806],[-35.22918,-5.62628],[-35.22795,-5.62388],[-35.22395,-5.62367],[-35.22162,-5.62681],[-35.2164,-5.62756],[-35.21612,-5.68018],[-35.21698,-5.68132],[-35.22102,-5.68102],[-35.22169,-5.67588],[-35.22487,-5.67332],[-35.22483,-5.66295],[-35.22222,-5.66132],[-35.22139,-5.65963],[-35.22151,-5.64483],[-35.22333,-5.64301],[-35.22786,-5.64269],[-35.22918,-5.64022]]],[[[-35.27818,-5.62622],[-35.28087,-5.62432],[-35.28024,-5.62027],[-35.26926,-5.62027],[-35.26801,-5.62608],[-35.2664,-5.62706],[-35.26197,-5.62745],[-35.26082,-5.62978],[-35.25481,-5.63464],[-35.25477,-5.63874],[-35.25926,-5.63924],[-35.26072,-5.63668],[-35.26317,-5.63542],[-35.26422,-5.63318],[-35.26659,-5.63201],[-35.2681,-5.62936],[-35.27655,-5.62883],[-35.27818,-5.62622]]],[[[-35.31958,-5.70413],[-35.32287,-5.70132],[-35.32244,-5.6904],[-35.31089,-5.69001],[-35.30826,-5.68676],[-35.30243,-5.68658],[-35.3005,-5.68478],[-35.3005,-5.68295],[-35.30185,-5.68096],[-35.3021,-5.67608],[-35.30537,-5.67321],[-35.30524,-5.66974],[-35.30201,-5.66717],[-35.30167,-5.66266],[-35.29822,-5.66168],[-35.29695,-5.6597],[-35.29886,-5.6546],[-35.30183,-5.65255],[-35.30124,-5.64477],[-35.28695,-5.64467],[-35.28462,-5.64781],[-35.27955,-5.64838],[-35.27762,-5.65131],[-35.27276,-5.65177],[-35.27151,-5.65758],[-35.26899,-5.65891],[-35.26782,-5.66128],[-35.26549,-5.66241],[-35.26432,-5.66478],[-35.26208,-5.66583],[-35.26082,-5.66828],[-35.25826,-5.66974],[-35.25887,-5.67428],[-35.26287,-5.67435],[-35.26638,-5.67257],[-35.27192,-5.67613],[-35.27192,-5.68137],[-35.26865,-5.68406],[-35.26863,-5.69429],[-35.26948,-5.69532],[-35.2744,-5.69586],[-35.2773,-5.70058],[-35.27729,-5.70247],[-35.27563,-5.70474],[-35.27626,-5.71623],[-35.28044,-5.7161],[-35.28136,-5.7106],[-35.28508,-5.70924],[-35.29461,-5.70949],[-35.29768,-5.71287],[-35.31505,-5.71283],[-35.31672,-5.71018],[-35.31919,-5.70886],[-35.31958,-5.70413]]]]}},{"type":"Feature","properties":{"municipio":"Ceará-Mirim","color":"#7CB342"},"geometry":{"type":"MultiPolygon","coordinates":[[[[-35.24949,-5.56439],[-35.25287,-5.56132],[-35.25285,-5.54409],[-35.25191,-5.54315],[-35.24859,-5.54315],[-35.24765,-5.54409],[-35.24728,-5.54867],[-35.24421,-5.55085],[-35.24367,-5.55586],[-35.23726,-5.56124],[-35.23664,-5.5664],[-35.23399,-5.56791],[-35.23282,-5.57028],[-35.23049,-5.57141],[-35.22932,-5.57378],[-35.22708,-5.57483],[-35.22582,-5.57728],[-35.22326,-5.57874],[-35.22321,-5.58265],[-35.22582,-5.58422],[-35.22662,-5.58619],[-35.22631,-5.59062],[-35.22317,-5.59295],[-35.22356,-5.5971],[-35.22755,-5.59733],[-35.22988,-5.59419],[-35.2351,-5.59344],[-35.23572,-5.58133],[-35.23739,-5.57999],[-35.24186,-5.57969],[-35.24672,-5.57368],[-35.24912,-5.57245],[-35.24949,-5.56439]]],[[[-35.32672,-5.59738],[-35.32589,-5.59565],[-35.31856,-5.59565],[-35.31612,-5.59881],[-35.30795,-5.59917],[-35.30632,-5.60178],[-35.30457,-5.60261],[-35.29988,-5.60231],[-35.29755,-5.59917],[-35.29376,-5.59927],[-35.29301,-5.60761],[-35.28976,-5.61024],[-35.28914,-5.6154],[-35.28649,-5.61691],[-35.28437,-5.61992],[-35.27616,-5.62033],[-35.27577,-5.62474],[-35.28332,-5.62537],[-35.28639,-5.62199],[-35.29774,-5.62173],[-35.29858,-5.61313],[-35.30159,-5.61101],[-35.30288,-5.60853],[-35.31176,-5.60774],[-35.31388,-5.60469],[-35.31855,-5.60433],[-35.32088,-5.60119],[-35.32584,-5.60067],[-35.32672,-5.59738]]],[[[-35.35318,-5.59387],[-35.35437,-5.59279],[-35.35363,-5.58872],[-35.33968,-5.58863],[-35.33712,-5.59181],[-35.33206,-5.5924],[-35.33115,-5.5963],[-35.33223,-5.59737],[-35.33932,-5.59737],[-35.34239,-5.59399],[-35.35318,-5.59387]]]]}}]}